{
  "type": "FeatureCollection",
  "features": [
    {
      "type": "Feature",
      "properties": {
        "norad_id": 35432,
        "name": "COSMOS 2251 DEB",
        "group": "cosmos-2251-debris",
        "lat": -13.826113928118076,
        "lon": 14.733651097533334,
        "alt_km": 494.38694855776794,
        "timestamp": "2025-12-11T05:00:26.704389+00:00",
        "meta_object_name": "COSMOS 2251 DEB",
        "meta_object_id": "1993-036AKA",
        "meta_epoch": "2025-12-10T19:36:26.089632",
        "meta_mean_motion": 15.22293499,
        "meta_eccentricity": 0.001229,
        "meta_inclination": 74.0227,
        "meta_ra_of_asc_node": 19.6014,
        "meta_arg_of_pericenter": 344.042,
        "meta_mean_anomaly": 16.0389,
        "meta_ephemeris_type": 0,
        "meta_classification_type": "U",
        "meta_norad_cat_id": 35432,
        "meta_element_set_no": 999,
        "meta_rev_at_epoch": 87474,
        "meta_bstar": 0.0075734518,
        "meta_mean_motion_dot": 0.00179101,
        "meta_mean_motion_ddot": 0,
        "tle_line1": "1 35432U 93036AKA 25344.81696863  .00179101  00000+0  75735-2 0  9990",
        "tle_line2": "2 35432  74.0227  19.6014 0012290 344.0420  16.0389 15.22293499874746"
      },
      "geometry": {
        "type": "Point",
        "coordinates": [
          14.733651097533334,
          -13.826113928118076
        ]
      }
    },
    {
      "type": "Feature",
      "properties": {
        "norad_id": 35433,
        "name": "COSMOS 2251 DEB",
        "group": "cosmos-2251-debris",
        "lat": -66.39737257854847,
        "lon": -59.684253299831795,
        "alt_km": 788.6520508216872,
        "timestamp": "2025-12-11T05:00:26.704399+00:00",
        "meta_object_name": "COSMOS 2251 DEB",
        "meta_object_id": "1993-036AKB",
        "meta_epoch": "2025-12-10T18:27:52.031808",
        "meta_mean_motion": 14.34742553,
        "meta_eccentricity": 0.00254013,
        "meta_inclination": 74.0339,
        "meta_ra_of_asc_node": 342.0559,
        "meta_arg_of_pericenter": 37.4572,
        "meta_mean_anomaly": 142.4072,
        "meta_ephemeris_type": 0,
        "meta_classification_type": "U",
        "meta_norad_cat_id": 35433,
        "meta_element_set_no": 999,
        "meta_rev_at_epoch": 86552,
        "meta_bstar": 0.00041847558,
        "meta_mean_motion_dot": 1.164e-05,
        "meta_mean_motion_ddot": 0,
        "tle_line1": "1 35433U 93036AKB 25344.76935222  .00001164  00000+0  41848-3 0  9992",
        "tle_line2": "2 35433  74.0339 342.0559 0025401  37.4572 142.4072 14.34742553865528"
      },
      "geometry": {
        "type": "Point",
        "coordinates": [
          -59.684253299831795,
          -66.39737257854847
        ]
      }
    },
    {
      "type": "Feature",
      "properties": {
        "norad_id": 35434,
        "name": "COSMOS 2251 DEB",
        "group": "cosmos-2251-debris",
        "lat": -66.30114387858026,
        "lon": 77.07763671359866,
        "alt_km": 761.5167972523222,
        "timestamp": "2025-12-11T05:00:26.704409+00:00",
        "meta_object_name": "COSMOS 2251 DEB",
        "meta_object_id": "1993-036AKC",
        "meta_epoch": "2025-12-10T09:17:45.920256",
        "meta_mean_motion": 14.25676993,
        "meta_eccentricity": 0.00875285,
        "meta_inclination": 74.0403,
        "meta_ra_of_asc_node": 217.8712,
        "meta_arg_of_pericenter": 289.0938,
        "meta_mean_anomaly": 70.0746,
        "meta_ephemeris_type": 0,
        "meta_classification_type": "U",
        "meta_norad_cat_id": 35434,
        "meta_element_set_no": 999,
        "meta_rev_at_epoch": 86084,
        "meta_bstar": 0.00089339487,
        "meta_mean_motion_dot": 2.18e-05,
        "meta_mean_motion_ddot": 0,
        "tle_line1": "1 35434U 93036AKC 25344.38733704  .00002180  00000+0  89339-3 0  9998",
        "tle_line2": "2 35434  74.0403 217.8712 0087528 289.0938  70.0746 14.25676993860848"
      },
      "geometry": {
        "type": "Point",
        "coordinates": [
          77.07763671359866,
          -66.30114387858026
        ]
      }
    },
    {
      "type": "Feature",
      "properties": {
        "norad_id": 35435,
        "name": "COSMOS 2251 DEB",
        "group": "cosmos-2251-debris",
        "lat": 23.828515120598947,
        "lon": -80.19518908137917,
        "alt_km": 629.4464503394202,
        "timestamp": "2025-12-11T05:00:26.704419+00:00",
        "meta_object_name": "COSMOS 2251 DEB",
        "meta_object_id": "1993-036AKD",
        "meta_epoch": "2025-12-09T15:01:26.253984",
        "meta_mean_motion": 14.78296996,
        "meta_eccentricity": 0.0008431,
        "meta_inclination": 74.0096,
        "meta_ra_of_asc_node": 110.1934,
        "meta_arg_of_pericenter": 204.3804,
        "meta_mean_anomaly": 171.3838,
        "meta_ephemeris_type": 0,
        "meta_classification_type": "U",
        "meta_norad_cat_id": 35435,
        "meta_element_set_no": 999,
        "meta_rev_at_epoch": 87493,
        "meta_bstar": 0.0036525,
        "meta_mean_motion_dot": 0.00026633,
        "meta_mean_motion_ddot": 0,
        "tle_line1": "1 35435U 93036AKD 25343.62599831  .00026633  00000+0  36525-2 0  9993",
        "tle_line2": "2 35435  74.0096 110.1934 0008431 204.3804 171.3838 14.78296996874937"
      },
      "geometry": {
        "type": "Point",
        "coordinates": [
          -80.19518908137917,
          23.828515120598947
        ]
      }
    },
    {
      "type": "Feature",
      "properties": {
        "norad_id": 35439,
        "name": "COSMOS 2251 DEB",
        "group": "cosmos-2251-debris",
        "lat": -12.842312750085163,
        "lon": -38.89096059722158,
        "alt_km": 990.3649537434849,
        "timestamp": "2025-12-11T05:00:26.704429+00:00",
        "meta_object_name": "COSMOS 2251 DEB",
        "meta_object_id": "1993-036AKH",
        "meta_epoch": "2025-12-09T17:39:24.182784",
        "meta_mean_motion": 13.92788449,
        "meta_eccentricity": 0.02417896,
        "meta_inclination": 74.0194,
        "meta_ra_of_asc_node": 139.886,
        "meta_arg_of_pericenter": 309.8567,
        "meta_mean_anomaly": 63.37,
        "meta_ephemeris_type": 0,
        "meta_classification_type": "U",
        "meta_norad_cat_id": 35439,
        "meta_element_set_no": 999,
        "meta_rev_at_epoch": 83919,
        "meta_bstar": 0.0021895802,
        "meta_mean_motion_dot": 3.579e-05,
        "meta_mean_motion_ddot": 0,
        "tle_line1": "1 35439U 93036AKH 25343.73569656  .00003579  00000+0  21896-2 0  9990",
        "tle_line2": "2 35439  74.0194 139.8860 0241789 309.8567  63.3700 13.92788449839199"
      },
      "geometry": {
        "type": "Point",
        "coordinates": [
          -38.89096059722158,
          -12.842312750085163
        ]
      }
    },
    {
      "type": "Feature",
      "properties": {
        "norad_id": 35440,
        "name": "COSMOS 2251 DEB",
        "group": "cosmos-2251-debris",
        "lat": -26.697051818882738,
        "lon": 38.88210983007453,
        "alt_km": 709.6215792319508,
        "timestamp": "2025-12-11T05:00:26.704438+00:00",
        "meta_object_name": "COSMOS 2251 DEB",
        "meta_object_id": "1993-036AKJ",
        "meta_epoch": "2025-12-10T08:26:45.842208",
        "meta_mean_motion": 14.68793955,
        "meta_eccentricity": 0.00692048,
        "meta_inclination": 74.0146,
        "meta_ra_of_asc_node": 212.2531,
        "meta_arg_of_pericenter": 353.6751,
        "meta_mean_anomaly": 6.3537,
        "meta_ephemeris_type": 0,
        "meta_classification_type": "U",
        "meta_norad_cat_id": 35440,
        "meta_element_set_no": 999,
        "meta_rev_at_epoch": 68730,
        "meta_bstar": 0.0006737672,
        "meta_mean_motion_dot": 4.046e-05,
        "meta_mean_motion_ddot": 0,
        "tle_line1": "1 35440U 93036AKJ 25344.35191947  .00004046  00000+0  67377-3 0  9990",
        "tle_line2": "2 35440  74.0146 212.2531 0069204 353.6751   6.3537 14.68793955687302"
      },
      "geometry": {
        "type": "Point",
        "coordinates": [
          38.88210983007453,
          -26.697051818882738
        ]
      }
    },
    {
      "type": "Feature",
      "properties": {
        "norad_id": 35441,
        "name": "COSMOS 2251 DEB",
        "group": "cosmos-2251-debris",
        "lat": -15.690215373049805,
        "lon": 125.59990199988793,
        "alt_km": 663.1090544293438,
        "timestamp": "2025-12-11T05:00:26.704448+00:00",
        "meta_object_name": "COSMOS 2251 DEB",
        "meta_object_id": "1993-036AKK",
        "meta_epoch": "2025-12-08T15:22:12.064224",
        "meta_mean_motion": 14.62488563,
        "meta_eccentricity": 0.0037245,
        "meta_inclination": 74.1346,
        "meta_ra_of_asc_node": 305.9066,
        "meta_arg_of_pericenter": 204.2337,
        "meta_mean_anomaly": 155.708,
        "meta_ephemeris_type": 0,
        "meta_classification_type": "U",
        "meta_norad_cat_id": 35441,
        "meta_element_set_no": 999,
        "meta_rev_at_epoch": 87370,
        "meta_bstar": 0.0024987,
        "meta_mean_motion_dot": 0.00012785,
        "meta_mean_motion_ddot": 0,
        "tle_line1": "1 35441U 93036AKK 25342.64041741  .00012785  00000+0  24987-2 0  9995",
        "tle_line2": "2 35441  74.1346 305.9066 0037245 204.2337 155.7080 14.62488563873703"
      },
      "geometry": {
        "type": "Point",
        "coordinates": [
          125.59990199988793,
          -15.690215373049805
        ]
      }
    }
  ]
}